SL-16 R/B               
1 25400U 98043G   26042.77109626  .00000078  00000+0  51749-4 0  9991
2 25400  98.8208 355.9581 0010954  89.6522 270.5913 14.26043548435292
SL-16 R/B               
1 25407U 98045B   26042.93336285  .00000216  00000+0  13317-3 0  9993
2 25407  71.0084 235.7380 0005516  55.7203 304.4442 14.16186108423452
ISS (ZARYA)             
1 25544U 98067A   26042.89126571  .00008863  00000+0  17123-3 0  9994
2 25544  51.6312 199.8857 0011053  89.0260 271.1995 15.48551986552336
CZ-4B R/B               
1 25732U 99025C   26042.71306928  .00000044  00000+0  41724-4 0  9993
2 25732  98.6680  87.6034 0037995  60.6640  48.8875 14.18260058384483
OKEAN-O                 
1 25860U 99039A   26042.76331823  .00000714  00000+0  10063-3 0  9992
2 25860  97.9502 102.9110 0001853  84.1646 275.9777 14.80292403430559
SL-16 R/B               
1 25861U 99039B   26042.70015193  .00000611  00000+0  84363-4 0  9997
2 25861  98.0024 101.8277 0014398 347.1409  12.9434 14.81694343433013
DELTA 2 R/B             
1 25876U 99041E   26042.95607543  .00002283  00000+0  40471-3 0  9997
2 25876  51.7655  44.0457 0502262 272.4142  81.9397 14.11735912359392
HELIOS 1B               
1 25977U 99064A   26042.68365458  .00001928  00000+0  21863-3 0  9999
2 25977  98.1722 304.1594 0002152 112.0095 248.1349 14.87589644681399
TERRA                   
1 25994U 99068A   26042.97540804  .00000504  00000+0  11196-3 0  9991
2 25994  97.9649  97.3852 0000984 247.6211 233.1957 14.60986508391328
SL-16 R/B               
1 26070U 00006B   26042.87140088 -.00000208  00000+0 -81476-4 0  9992
2 26070  71.0029 152.1233 0018281 226.6929 133.2670 14.15820033344908
TITAN 4B R/B            
1 26474U 00047B   26042.92006933  .00003498  00000+0  22362-3 0  9991
2 26474  67.9892 112.9624 0037035  67.0290 293.4759 15.09343559389028
ENVISAT                 
1 27386U 02009A   26042.88592211  .00000144  00000+0  60398-4 0  9995
2 27386  98.3682 357.1050 0001337  88.2206 335.6982 14.39027163255469
