CCSDS_OMM_VERS = 2.0
CREATION_DATE  = 
ORIGINATOR     = 

OBJECT_NAME    = SL-16 R/B
OBJECT_ID      = 1998-043G
CENTER_NAME    = EARTH
REF_FRAME      = TEME
TIME_SYSTEM    = UTC
MEAN_ELEMENT_THEORY = SGP/SGP4

EPOCH          = 2026-02-11T18:30:22.716864
MEAN_MOTION    = 14.26043548
ECCENTRICITY   = .00109549
INCLINATION    = 98.8208
RA_OF_ASC_NODE = 355.9581
ARG_OF_PERICENTER = 89.6522
MEAN_ANOMALY   = 270.5913

EPHEMERIS_TYPE = 0
CLASSIFICATION_TYPE = U
NORAD_CAT_ID   = 25400
ELEMENT_SET_NO = 999
REV_AT_EPOCH   = 43529
BSTAR          = .51749177E-4
MEAN_MOTION_DOT = .78E-6
MEAN_MOTION_DDOT = 0

CCSDS_OMM_VERS = 2.0
CREATION_DATE  = 
ORIGINATOR     = 

OBJECT_NAME    = SL-16 R/B
OBJECT_ID      = 1998-045B
CENTER_NAME    = EARTH
REF_FRAME      = TEME
TIME_SYSTEM    = UTC
MEAN_ELEMENT_THEORY = SGP/SGP4

EPOCH          = 2026-02-11T22:24:02.550240
MEAN_MOTION    = 14.16186108
ECCENTRICITY   = .00055161
INCLINATION    = 71.0084
RA_OF_ASC_NODE = 235.7380
ARG_OF_PERICENTER = 55.7203
MEAN_ANOMALY   = 304.4442

EPHEMERIS_TYPE = 0
CLASSIFICATION_TYPE = U
NORAD_CAT_ID   = 25407
ELEMENT_SET_NO = 999
REV_AT_EPOCH   = 42345
BSTAR          = .13316562E-3
MEAN_MOTION_DOT = .216E-5
MEAN_MOTION_DDOT = 0

CCSDS_OMM_VERS = 2.0
CREATION_DATE  = 
ORIGINATOR     = 

OBJECT_NAME    = ISS (ZARYA)
OBJECT_ID      = 1998-067A
CENTER_NAME    = EARTH
REF_FRAME      = TEME
TIME_SYSTEM    = UTC
MEAN_ELEMENT_THEORY = SGP/SGP4

EPOCH          = 2026-02-11T21:23:25.357344
MEAN_MOTION    = 15.48551986
ECCENTRICITY   = .00110534
INCLINATION    = 51.6312
RA_OF_ASC_NODE = 199.8857
ARG_OF_PERICENTER = 89.0260
MEAN_ANOMALY   = 271.1995

EPHEMERIS_TYPE = 0
CLASSIFICATION_TYPE = U
NORAD_CAT_ID   = 25544
ELEMENT_SET_NO = 999
REV_AT_EPOCH   = 55233
BSTAR          = .17123264E-3
MEAN_MOTION_DOT = .8863E-4
MEAN_MOTION_DDOT = 0

CCSDS_OMM_VERS = 2.0
CREATION_DATE  = 
ORIGINATOR     = 

OBJECT_NAME    = CZ-4B R/B
OBJECT_ID      = 1999-025C
CENTER_NAME    = EARTH
REF_FRAME      = TEME
TIME_SYSTEM    = UTC
MEAN_ELEMENT_THEORY = SGP/SGP4

EPOCH          = 2026-02-11T17:06:49.185792
MEAN_MOTION    = 14.18260058
ECCENTRICITY   = .00379955
INCLINATION    = 98.6680
RA_OF_ASC_NODE = 87.6034
ARG_OF_PERICENTER = 60.6640
MEAN_ANOMALY   = 48.8875

EPHEMERIS_TYPE = 0
CLASSIFICATION_TYPE = U
NORAD_CAT_ID   = 25732
ELEMENT_SET_NO = 999
REV_AT_EPOCH   = 38448
BSTAR          = .41723537E-4
MEAN_MOTION_DOT = .44E-6
MEAN_MOTION_DDOT = 0

CCSDS_OMM_VERS = 2.0
CREATION_DATE  = 
ORIGINATOR     = 

OBJECT_NAME    = OKEAN-O
OBJECT_ID      = 1999-039A
CENTER_NAME    = EARTH
REF_FRAME      = TEME
TIME_SYSTEM    = UTC
MEAN_ELEMENT_THEORY = SGP/SGP4

EPOCH          = 2026-02-11T18:19:10.695072
MEAN_MOTION    = 14.80292403
ECCENTRICITY   = .00018536
INCLINATION    = 97.9502
RA_OF_ASC_NODE = 102.9110
ARG_OF_PERICENTER = 84.1646
MEAN_ANOMALY   = 275.9777

EPHEMERIS_TYPE = 0
CLASSIFICATION_TYPE = U
NORAD_CAT_ID   = 25860
ELEMENT_SET_NO = 999
REV_AT_EPOCH   = 43055
BSTAR          = .10063368E-3
MEAN_MOTION_DOT = .714E-5
MEAN_MOTION_DDOT = 0

CCSDS_OMM_VERS = 2.0
CREATION_DATE  = 
ORIGINATOR     = 

OBJECT_NAME    = SL-16 R/B
OBJECT_ID      = 1999-039B
CENTER_NAME    = EARTH
REF_FRAME      = TEME
TIME_SYSTEM    = UTC
MEAN_ELEMENT_THEORY = SGP/SGP4

EPOCH          = 2026-02-11T16:48:13.126752
MEAN_MOTION    = 14.81694343
ECCENTRICITY   = .00143981
INCLINATION    = 98.0024
RA_OF_ASC_NODE = 101.8277
ARG_OF_PERICENTER = 347.1409
MEAN_ANOMALY   = 12.9434

EPHEMERIS_TYPE = 0
CLASSIFICATION_TYPE = U
NORAD_CAT_ID   = 25861
ELEMENT_SET_NO = 999
REV_AT_EPOCH   = 43301
BSTAR          = .84363184E-4
MEAN_MOTION_DOT = .611E-5
MEAN_MOTION_DDOT = 0

CCSDS_OMM_VERS = 2.0
CREATION_DATE  = 
ORIGINATOR     = 

OBJECT_NAME    = DELTA 2 R/B
OBJECT_ID      = 1999-041E
CENTER_NAME    = EARTH
REF_FRAME      = TEME
TIME_SYSTEM    = UTC
MEAN_ELEMENT_THEORY = SGP/SGP4

EPOCH          = 2026-02-11T22:56:44.917152
MEAN_MOTION    = 14.11735912
ECCENTRICITY   = .05022629
INCLINATION    = 51.7655
RA_OF_ASC_NODE = 44.0457
ARG_OF_PERICENTER = 272.4142
MEAN_ANOMALY   = 81.9397

EPHEMERIS_TYPE = 0
CLASSIFICATION_TYPE = U
NORAD_CAT_ID   = 25876
ELEMENT_SET_NO = 999
REV_AT_EPOCH   = 35939
BSTAR          = .4047089E-3
MEAN_MOTION_DOT = .2283E-4
MEAN_MOTION_DDOT = 0

CCSDS_OMM_VERS = 2.0
CREATION_DATE  = 
ORIGINATOR     = 

OBJECT_NAME    = HELIOS 1B
OBJECT_ID      = 1999-064A
CENTER_NAME    = EARTH
REF_FRAME      = TEME
TIME_SYSTEM    = UTC
MEAN_ELEMENT_THEORY = SGP/SGP4

EPOCH          = 2026-02-11T16:24:27.755712
MEAN_MOTION    = 14.87589644
ECCENTRICITY   = .00021527
INCLINATION    = 98.1722
RA_OF_ASC_NODE = 304.1594
ARG_OF_PERICENTER = 112.0095
MEAN_ANOMALY   = 248.1349

EPHEMERIS_TYPE = 0
CLASSIFICATION_TYPE = U
NORAD_CAT_ID   = 25977
ELEMENT_SET_NO = 999
REV_AT_EPOCH   = 68139
BSTAR          = .21862672E-3
MEAN_MOTION_DOT = .1928E-4
MEAN_MOTION_DDOT = 0

CCSDS_OMM_VERS = 2.0
CREATION_DATE  = 
ORIGINATOR     = 

OBJECT_NAME    = TERRA
OBJECT_ID      = 1999-068A
CENTER_NAME    = EARTH
REF_FRAME      = TEME
TIME_SYSTEM    = UTC
MEAN_ELEMENT_THEORY = SGP/SGP4

EPOCH          = 2026-02-11T23:24:35.254656
MEAN_MOTION    = 14.60986508
ECCENTRICITY   = .00009848
INCLINATION    = 97.9649
RA_OF_ASC_NODE = 97.3852
ARG_OF_PERICENTER = 247.6211
MEAN_ANOMALY   = 233.1957

EPHEMERIS_TYPE = 0
CLASSIFICATION_TYPE = U
NORAD_CAT_ID   = 25994
ELEMENT_SET_NO = 999
REV_AT_EPOCH   = 39132
BSTAR          = .11195817E-3
MEAN_MOTION_DOT = .504E-5
MEAN_MOTION_DDOT = 0

CCSDS_OMM_VERS = 2.0
CREATION_DATE  = 
ORIGINATOR     = 

OBJECT_NAME    = SL-16 R/B
OBJECT_ID      = 2000-006B
CENTER_NAME    = EARTH
REF_FRAME      = TEME
TIME_SYSTEM    = UTC
MEAN_ELEMENT_THEORY = SGP/SGP4

EPOCH          = 2026-02-11T20:54:49.036032
MEAN_MOTION    = 14.15820033
ECCENTRICITY   = .00182815
INCLINATION    = 71.0029
RA_OF_ASC_NODE = 152.1233
ARG_OF_PERICENTER = 226.6929
MEAN_ANOMALY   = 133.2670

EPHEMERIS_TYPE = 0
CLASSIFICATION_TYPE = U
NORAD_CAT_ID   = 26070
ELEMENT_SET_NO = 999
REV_AT_EPOCH   = 34490
BSTAR          = -.8147615E-4
MEAN_MOTION_DOT = -.208E-5
MEAN_MOTION_DDOT = 0

CCSDS_OMM_VERS = 2.0
CREATION_DATE  = 
ORIGINATOR     = 

OBJECT_NAME    = TITAN 4B R/B
OBJECT_ID      = 2000-047B
CENTER_NAME    = EARTH
REF_FRAME      = TEME
TIME_SYSTEM    = UTC
MEAN_ELEMENT_THEORY = SGP/SGP4

EPOCH          = 2026-02-11T22:04:53.990112
MEAN_MOTION    = 15.09343559
ECCENTRICITY   = .00370353
INCLINATION    = 67.9892
RA_OF_ASC_NODE = 112.9624
ARG_OF_PERICENTER = 67.0290
MEAN_ANOMALY   = 293.4759

EPHEMERIS_TYPE = 0
CLASSIFICATION_TYPE = U
NORAD_CAT_ID   = 26474
ELEMENT_SET_NO = 999
REV_AT_EPOCH   = 38902
BSTAR          = .22362175E-3
MEAN_MOTION_DOT = .3498E-4
MEAN_MOTION_DDOT = 0

CCSDS_OMM_VERS = 2.0
CREATION_DATE  = 
ORIGINATOR     = 

OBJECT_NAME    = ENVISAT
OBJECT_ID      = 2002-009A
CENTER_NAME    = EARTH
REF_FRAME      = TEME
TIME_SYSTEM    = UTC
MEAN_ELEMENT_THEORY = SGP/SGP4

EPOCH          = 2026-02-11T21:15:43.670304
MEAN_MOTION    = 14.39027163
ECCENTRICITY   = .00013372
INCLINATION    = 98.3682
RA_OF_ASC_NODE = 357.1050
ARG_OF_PERICENTER = 88.2206
MEAN_ANOMALY   = 335.6982

EPHEMERIS_TYPE = 0
CLASSIFICATION_TYPE = U
NORAD_CAT_ID   = 27386
ELEMENT_SET_NO = 999
REV_AT_EPOCH   = 25546
BSTAR          = .60398416E-4
MEAN_MOTION_DOT = .144E-5
MEAN_MOTION_DDOT = 0

